{"type": "FeatureCollection", "features": [{"type": "Feature", "properties": {"norad_id": 24946, "name": "IRIDIUM 33", "group": "iridium-33-debris", "lat": -36.560557805136696, "lon": 60.25379856999719, "alt_km": 787.1342792481682, "timestamp": "2025-12-25T07:41:10.107807+00:00", "meta": {"OBJECT_NAME": "IRIDIUM 33", "OBJECT_ID": "1997-051C", "EPOCH": "2025-12-24T16:47:43.898496", "MEAN_MOTION": 14.3504533, "ECCENTRICITY": 0.00084437, "INCLINATION": 86.3857, "RA_OF_ASC_NODE": 63.2009, "ARG_OF_PERICENTER": 161.6757, "MEAN_ANOMALY": 198.4746, "EPHEMERIS_TYPE": 0, "CLASSIFICATION_TYPE": "U", "NORAD_CAT_ID": 24946, "ELEMENT_SET_NO": 999, "REV_AT_EPOCH": 48006, "BSTAR": 0.00011017543, "MEAN_MOTION_DOT": 3.34e-06, "MEAN_MOTION_DDOT": 0}, "tle": {"line1": "1 24946U 97051C   25358.69981364  .00000334  00000+0  11018-3 0  9999", "line2": "2 24946  86.3857  63.2009 0008443 161.6757 198.4746 14.35045330480061"}}, "geometry": {"type": "Point", "coordinates": [60.25379856999719, -36.560557805136696]}}, {"type": "Feature", "properties": {"norad_id": 33773, "name": "IRIDIUM 33 DEB", "group": "iridium-33-debris", "lat": -67.23879963651893, "lon": 46.6276368386444, "alt_km": 764.4608832833046, "timestamp": "2025-12-25T07:41:10.107849+00:00", "meta": {"OBJECT_NAME": "IRIDIUM 33 DEB", "OBJECT_ID": "1997-051L", "EPOCH": "2025-12-24T22:00:55.812960", "MEAN_MOTION": 14.43281743, "ECCENTRICITY": 0.0013264, "INCLINATION": 86.3998, "RA_OF_ASC_NODE": 55.4287, "ARG_OF_PERICENTER": 111.4398, "MEAN_ANOMALY": 248.8219, "EPHEMERIS_TYPE": 0, "CLASSIFICATION_TYPE": "U", "NORAD_CAT_ID": 33773, "ELEMENT_SET_NO": 999, "REV_AT_EPOCH": 88523, "BSTAR": 0.00029378887, "MEAN_MOTION_DOT": 1.01e-05, "MEAN_MOTION_DDOT": 0}, "tle": {"line1": "1 33773U 97051L   25358.91731265  .00001010  00000+0  29379-3 0  9996", "line2": "2 33773  86.3998  55.4287 0013264 111.4398 248.8219 14.43281743885239"}}, "geometry": {"type": "Point", "coordinates": [46.6276368386444, -67.23879963651893]}}, {"type": "Feature", "properties": {"norad_id": 33775, "name": "IRIDIUM 33 DEB", "group": "iridium-33-debris", "lat": -64.6169829176721, "lon": 36.476794750372335, "alt_km": 771.7803247977863, "timestamp": "2025-12-25T07:41:10.107866+00:00", "meta": {"OBJECT_NAME": "IRIDIUM 33 DEB", "OBJECT_ID": "1997-051N", "EPOCH": "2025-12-24T21:08:33.647136", "MEAN_MOTION": 14.41493494, "ECCENTRICITY": 0.00153013, "INCLINATION": 86.3624, "RA_OF_ASC_NODE": 44.3695, "ARG_OF_PERICENTER": 118.5758, "MEAN_ANOMALY": 58.3115, "EPHEMERIS_TYPE": 0, "CLASSIFICATION_TYPE": "U", "NORAD_CAT_ID": 33775, "ELEMENT_SET_NO": 999, "REV_AT_EPOCH": 88315, "BSTAR": 0.00031635445, "MEAN_MOTION_DOT": 1.048e-05, "MEAN_MOTION_DDOT": 0}, "tle": {"line1": "1 33775U 97051N   25358.88094499  .00001048  00000+0  31635-3 0  9994", "line2": "2 33775  86.3624  44.3695 0015301 118.5758  58.3115 14.41493494883153"}}, "geometry": {"type": "Point", "coordinates": [36.476794750372335, -64.6169829176721]}}, {"type": "Feature", "properties": {"norad_id": 33776, "name": "IRIDIUM 33 DEB", "group": "iridium-33-debris", "lat": 18.24533036078869, "lon": 76.68077418265605, "alt_km": 772.1684841554588, "timestamp": "2025-12-25T07:41:10.107880+00:00", "meta": {"OBJECT_NAME": "IRIDIUM 33 DEB", "OBJECT_ID": "1997-051P", "EPOCH": "2025-12-24T17:06:29.634336", "MEAN_MOTION": 14.38254982, "ECCENTRICITY": 0.00156803, "INCLINATION": 86.4031, "RA_OF_ASC_NODE": 75.7477, "ARG_OF_PERICENTER": 152.4095, "MEAN_ANOMALY": 323.0984, "EPHEMERIS_TYPE": 0, "CLASSIFICATION_TYPE": "U", "NORAD_CAT_ID": 33776, "ELEMENT_SET_NO": 999, "REV_AT_EPOCH": 88254, "BSTAR": 0.00025627618, "MEAN_MOTION_DOT": 7.99e-06, "MEAN_MOTION_DDOT": 0}, "tle": {"line1": "1 33776U 97051P   25358.71284299  .00000799  00000+0  25628-3 0  9993", "line2": "2 33776  86.4031  75.7477 0015680 152.4095 323.0984 14.38254982882545"}}, "geometry": {"type": "Point", "coordinates": [76.68077418265605, 18.24533036078869]}}, {"type": "Feature", "properties": {"norad_id": 33777, "name": "IRIDIUM 33 DEB", "group": "iridium-33-debris", "lat": -53.56084887440901, "lon": -145.34766753980486, "alt_km": 710.6419613099397, "timestamp": "2025-12-25T07:41:10.107893+00:00", "meta": {"OBJECT_NAME": "IRIDIUM 33 DEB", "OBJECT_ID": "1997-051Q", "EPOCH": "2025-12-24T19:04:04.012896", "MEAN_MOTION": 14.55693691, "ECCENTRICITY": 0.0006279, "INCLINATION": 86.3772, "RA_OF_ASC_NODE": 29.9584, "ARG_OF_PERICENTER": 198.3661, "MEAN_ANOMALY": 161.7321, "EPHEMERIS_TYPE": 0, "CLASSIFICATION_TYPE": "U", "NORAD_CAT_ID": 33777, "ELEMENT_SET_NO": 999, "REV_AT_EPOCH": 88709, "BSTAR": 0.00080567078, "MEAN_MOTION_DOT": 3.541e-05, "MEAN_MOTION_DDOT": 0}, "tle": {"line1": "1 33777U 97051Q   25358.79449089  .00003541  00000+0  80567-3 0  9993", "line2": "2 33777  86.3772  29.9584 0006279 198.3661 161.7321 14.55693691887099"}}, "geometry": {"type": "Point", "coordinates": [-145.34766753980486, -53.56084887440901]}}, {"type": "Feature", "properties": {"norad_id": 33850, "name": "IRIDIUM 33 DEB", "group": "iridium-33-debris", "lat": -53.11205786611255, "lon": 19.87813054624936, "alt_km": 767.8138395556052, "timestamp": "2025-12-25T07:41:10.107905+00:00", "meta": {"OBJECT_NAME": "IRIDIUM 33 DEB", "OBJECT_ID": "1997-051T", "EPOCH": "2025-12-24T14:09:34.936416", "MEAN_MOTION": 14.42175035, "ECCENTRICITY": 0.00132396, "INCLINATION": 86.3408, "RA_OF_ASC_NODE": 25.0836, "ARG_OF_PERICENTER": 125.8132, "MEAN_ANOMALY": 351.9866, "EPHEMERIS_TYPE": 0, "CLASSIFICATION_TYPE": "U", "NORAD_CAT_ID": 33850, "ELEMENT_SET_NO": 999, "REV_AT_EPOCH": 88323, "BSTAR": 0.00039597193, "MEAN_MOTION_DOT": 1.324e-05, "MEAN_MOTION_DDOT": 0}, "tle": {"line1": "1 33850U 97051T   25358.58998769  .00001324  00000+0  39597-3 0  9990", "line2": "2 33850  86.3408  25.0836 0013239 125.8132 351.9866 14.42175035883238"}}, "geometry": {"type": "Point", "coordinates": [19.87813054624936, -53.11205786611255]}}, {"type": "Feature", "properties": {"norad_id": 33853, "name": "IRIDIUM 33 DEB", "group": "iridium-33-debris", "lat": -1.8559591314329607, "lon": 164.4236979430236, "alt_km": 754.0544733513398, "timestamp": "2025-12-25T07:41:10.107918+00:00", "meta": {"OBJECT_NAME": "IRIDIUM 33 DEB", "OBJECT_ID": "1997-051W", "EPOCH": "2025-12-24T22:19:16.042656", "MEAN_MOTION": 13.99120379, "ECCENTRICITY": 0.02077344, "INCLINATION": 86.0001, "RA_OF_ASC_NODE": 344.4648, "ARG_OF_PERICENTER": 198.227, "MEAN_ANOMALY": 179.9108, "EPHEMERIS_TYPE": 0, "CLASSIFICATION_TYPE": "U", "NORAD_CAT_ID": 33853, "ELEMENT_SET_NO": 999, "REV_AT_EPOCH": 85516, "BSTAR": 0.0011909425, "MEAN_MOTION_DOT": 2.092e-05, "MEAN_MOTION_DDOT": 0}, "tle": {"line1": "1 33853U 97051W   25358.93004679  .00002092  00000+0  11909-2 0  9999", "line2": "2 33853  86.0001 344.4648 0207734 198.2270 179.9108 13.99120379855168"}}, "geometry": {"type": "Point", "coordinates": [164.4236979430236, -1.8559591314329607]}}, {"type": "Feature", "properties": {"norad_id": 33860, "name": "IRIDIUM 33 DEB", "group": "iridium-33-debris", "lat": -55.991775167000476, "lon": 16.287538895928986, "alt_km": 671.8972973761292, "timestamp": "2025-12-25T07:41:10.107930+00:00", "meta": {"OBJECT_NAME": "IRIDIUM 33 DEB", "OBJECT_ID": "1997-051AD", "EPOCH": "2025-12-24T12:59:38.336352", "MEAN_MOTION": 14.67504611, "ECCENTRICITY": 0.00060848, "INCLINATION": 86.3822, "RA_OF_ASC_NODE": 22.0129, "ARG_OF_PERICENTER": 311.3262, "MEAN_ANOMALY": 200.6333, "EPHEMERIS_TYPE": 0, "CLASSIFICATION_TYPE": "U", "NORAD_CAT_ID": 33860, "ELEMENT_SET_NO": 999, "REV_AT_EPOCH": 88895, "BSTAR": 0.0011545286, "MEAN_MOTION_DOT": 6.566e-05, "MEAN_MOTION_DDOT": 0}, "tle": {"line1": "1 33860U 97051AD  25358.54141593  .00006566  00000+0  11545-2 0  9997", "line2": "2 33860  86.3822  22.0129 0006084 311.3262 200.6333 14.67504611888953"}}, "geometry": {"type": "Point", "coordinates": [16.287538895928986, -55.991775167000476]}}, {"type": "Feature", "properties": {"norad_id": 33862, "name": "IRIDIUM 33 DEB", "group": "iridium-33-debris", "lat": 75.56099634201117, "lon": 46.10151976565537, "alt_km": 630.9365458576531, "timestamp": "2025-12-25T07:41:10.107941+00:00", "meta": {"OBJECT_NAME": "IRIDIUM 33 DEB", "OBJECT_ID": "1997-051AF", "EPOCH": "2025-12-24T20:41:22.554240", "MEAN_MOTION": 14.69665341, "ECCENTRICITY": 0.0052137, "INCLINATION": 86.4081, "RA_OF_ASC_NODE": 32.1834, "ARG_OF_PERICENTER": 28.4206, "MEAN_ANOMALY": 144.5515, "EPHEMERIS_TYPE": 0, "CLASSIFICATION_TYPE": "U", "NORAD_CAT_ID": 33862, "ELEMENT_SET_NO": 999, "REV_AT_EPOCH": 89001, "BSTAR": 0.0015263511, "MEAN_MOTION_DOT": 9.3e-05, "MEAN_MOTION_DDOT": 0}, "tle": {"line1": "1 33862U 97051AF  25358.86206660  .00009300  00000+0  15264-2 0  9992", "line2": "2 33862  86.4081  32.1834 0052137  28.4206 144.5515 14.69665341890010"}}, "geometry": {"type": "Point", "coordinates": [46.10151976565537, 75.56099634201117]}}, {"type": "Feature", "properties": {"norad_id": 33866, "name": "IRIDIUM 33 DEB", "group": "iridium-33-debris", "lat": -61.30658536639911, "lon": 80.92310963236663, "alt_km": 897.3507155995258, "timestamp": "2025-12-25T07:41:10.107952+00:00", "meta": {"OBJECT_NAME": "IRIDIUM 33 DEB", "OBJECT_ID": "1997-051AK", "EPOCH": "2025-12-24T05:18:24.789600", "MEAN_MOTION": 14.25308834, "ECCENTRICITY": 0.01151675, "INCLINATION": 86.2998, "RA_OF_ASC_NODE": 88.1782, "ARG_OF_PERICENTER": 125.0108, "MEAN_ANOMALY": 297.1941, "EPHEMERIS_TYPE": 0, "CLASSIFICATION_TYPE": "U", "NORAD_CAT_ID": 33866, "ELEMENT_SET_NO": 999, "REV_AT_EPOCH": 86974, "BSTAR": 0.0005658111, "MEAN_MOTION_DOT": 1.447e-05, "MEAN_MOTION_DDOT": 0}, "tle": {"line1": "1 33866U 97051AK  25358.22112025  .00001447  00000+0  56581-3 0  9999", "line2": "2 33866  86.2998  88.1782 0115167 125.0108 297.1941 14.25308834869747"}}, "geometry": {"type": "Point", "coordinates": [80.92310963236663, -61.30658536639911]}}]}